{"type": "FeatureCollection", "features": [ {"type": "Feature", "properties": {"norad_id": 42741, "name": "EUTELSAT 172B", "group": "eutelsat", "lat": 0.01924707626834762, "lon": 158.64259434543564, "alt_km": 35785.712967822874, "timestamp": "2025-12-24T16:52:41.172706+00:00", "meta": {"OBJECT_NAME": "EUTELSAT 172B", "OBJECT_ID": "2017-029B", "EPOCH": "2025-12-24T03:06:38.620224", "MEAN_MOTION": 1.00270328, "ECCENTRICITY": 2.028e-05, "INCLINATION": 0.0283, "RA_OF_ASC_NODE": 128.876, "ARG_OF_PERICENTER": 1.7341, "MEAN_ANOMALY": 180.9646, "EPHEMERIS_TYPE": 0, "CLASSIFICATION_TYPE": "U", "NORAD_CAT_ID": 42741, "ELEMENT_SET_NO": 999, "REV_AT_EPOCH": 3197, "BSTAR": 0, "MEAN_MOTION_DOT": 1.5e-07, "MEAN_MOTION_DDOT": 0}, "tle": {"line1": "1 42741U 17029B   25358.12961366  .00000015  00000+0  00000+0 0  9998", "line2": "2 42741   0.0283 128.8760 0000202   1.7341 180.9646  1.00270328 31972"}}, "geometry": {"type": "Point", "coordinates": [158.64259434543564, 0.01924707626834762]}}, {"type": "Feature", "properties": {"norad_id": 44334, "name": "EUTELSAT 7C", "group": "eutelsat", "lat": -0.004782237656190925, "lon": -6.351016649806481, "alt_km": 35787.857406160365, "timestamp": "2025-12-24T16:52:41.172719+00:00", "meta": {"OBJECT_NAME": "EUTELSAT 7C", "OBJECT_ID": "2019-034B", "EPOCH": "2025-12-24T06:17:06.804384", "MEAN_MOTION": 1.00270713, "ECCENTRICITY": 0.0003166, "INCLINATION": 0.0725, "RA_OF_ASC_NODE": 178.058, "ARG_OF_PERICENTER": 78.9568, "MEAN_ANOMALY": 297.2777, "EPHEMERIS_TYPE": 0, "CLASSIFICATION_TYPE": "U", "NORAD_CAT_ID": 44334, "ELEMENT_SET_NO": 999, "REV_AT_EPOCH": 508, "BSTAR": 0, "MEAN_MOTION_DOT": 6.9e-07, "MEAN_MOTION_DDOT": 0}, "tle": {"line1": "1 44334U 19034B   25358.26188431  .00000069  00000+0  00000+0 0  9994", "line2": "2 44334   0.0725 178.0580 0003166  78.9568 297.2777  1.00270713  5087"}}, "geometry": {"type": "Point", "coordinates": [-6.351016649806481, -0.004782237656190925]}}, {"type": "Feature", "properties": {"norad_id": 44624, "name": "EUTELSAT 5 WEST B", "group": "eutelsat", "lat": -0.009685920616848392, "lon": -18.32524016612933, "alt_km": 35781.56480382733, "timestamp": "2025-12-24T16:52:41.172731+00:00", "meta": {"OBJECT_NAME": "EUTELSAT 5 WEST B", "OBJECT_ID": "2019-067A", "EPOCH": "2025-12-24T06:13:37.139232", "MEAN_MOTION": 1.00271324, "ECCENTRICITY": 0.00031173, "INCLINATION": 0.0638, "RA_OF_ASC_NODE": 342.4583, "ARG_OF_PERICENTER": 289.7329, "MEAN_ANOMALY": 269.2531, "EPHEMERIS_TYPE": 0, "CLASSIFICATION_TYPE": "U", "NORAD_CAT_ID": 44624, "ELEMENT_SET_NO": 999, "REV_AT_EPOCH": 2268, "BSTAR": 0, "MEAN_MOTION_DOT": -2.1e-07, "MEAN_MOTION_DDOT": 0}, "tle": {"line1": "1 44624U 19067A   25358.25945763 -.00000021  00000+0  00000+0 0  9999", "line2": "2 44624   0.0638 342.4583 0003117 289.7329 269.2531  1.00271324 22686"}}, "geometry": {"type": "Point", "coordinates": [-18.32524016612933, -0.009685920616848392]}}, {"type": "Feature", "properties": {"norad_id": 45027, "name": "EUTELSAT KONNECT", "group": "eutelsat", "lat": -0.07339808227592481, "lon": -6.148288408671752, "alt_km": 35785.23497136313, "timestamp": "2025-12-24T16:52:41.172743+00:00", "meta": {"OBJECT_NAME": "EUTELSAT KONNECT", "OBJECT_ID": "2020-005B", "EPOCH": "2025-12-24T06:17:06.804384", "MEAN_MOTION": 1.00268571, "ECCENTRICITY": 0.00013512, "INCLINATION": 0.0698, "RA_OF_ASC_NODE": 94.2648, "ARG_OF_PERICENTER": 187.1858, "MEAN_ANOMALY": 273.0694, "EPHEMERIS_TYPE": 0, "CLASSIFICATION_TYPE": "U", "NORAD_CAT_ID": 45027, "ELEMENT_SET_NO": 999, "REV_AT_EPOCH": 2258, "BSTAR": 0, "MEAN_MOTION_DOT": 7e-07, "MEAN_MOTION_DDOT": 0}, "tle": {"line1": "1 45027U 20005B   25358.26188431  .00000070  00000+0  00000+0 0  9996", "line2": "2 45027   0.0698  94.2648 0001351 187.1858 273.0694  1.00268571 22582"}}, "geometry": {"type": "Point", "coordinates": [-6.148288408671752, -0.07339808227592481]}}, {"type": "Feature", "properties": {"norad_id": 49056, "name": "EUTELSAT QUANTUM", "group": "eutelsat", "lat": 0.013002792376653189, "lon": 34.377807473661306, "alt_km": 35791.9007297699, "timestamp": "2025-12-24T16:52:41.172755+00:00", "meta": {"OBJECT_NAME": "EUTELSAT QUANTUM", "OBJECT_ID": "2021-069B", "EPOCH": "2025-12-24T06:09:38.613888", "MEAN_MOTION": 1.00270764, "ECCENTRICITY": 0.00034372, "INCLINATION": 0.011, "RA_OF_ASC_NODE": 11.2184, "ARG_OF_PERICENTER": 270.6247, "MEAN_ANOMALY": 311.3053, "EPHEMERIS_TYPE": 0, "CLASSIFICATION_TYPE": "U", "NORAD_CAT_ID": 49056, "ELEMENT_SET_NO": 999, "REV_AT_EPOCH": 1617, "BSTAR": 0, "MEAN_MOTION_DOT": 1.47e-06, "MEAN_MOTION_DDOT": 0}, "tle": {"line1": "1 49056U 21069B   25358.25669692  .00000147  00000+0  00000+0 0  9990", "line2": "2 49056   0.0110  11.2184 0003437 270.6247 311.3053  1.00270764 16178"}}, "geometry": {"type": "Point", "coordinates": [34.377807473661306, 0.013002792376653189]}}, {"type": "Feature", "properties": {"norad_id": 53765, "name": "EUTELSAT KONNECT VHTS", "group": "eutelsat", "lat": -0.06116685503589499, "lon": -10.611197434978441, "alt_km": 35789.298267268096, "timestamp": "2025-12-24T16:52:41.172767+00:00", "meta": {"OBJECT_NAME": "EUTELSAT KONNECT VHTS", "OBJECT_ID": "2022-110A", "EPOCH": "2025-12-24T06:15:51.924096", "MEAN_MOTION": 1.00267334, "ECCENTRICITY": 0.0002471, "INCLINATION": 0.0589, "RA_OF_ASC_NODE": 98.5782, "ARG_OF_PERICENTER": 149.6286, "MEAN_ANOMALY": 301.5264, "EPHEMERIS_TYPE": 0, "CLASSIFICATION_TYPE": "U", "NORAD_CAT_ID": 53765, "ELEMENT_SET_NO": 999, "REV_AT_EPOCH": 507, "BSTAR": 0, "MEAN_MOTION_DOT": 3.8e-07, "MEAN_MOTION_DDOT": 0}, "tle": {"line1": "1 53765U 22110A   25358.26101764  .00000038  00000+0  00000+0 0  9991", "line2": "2 53765   0.0589  98.5782 0002471 149.6286 301.5264  1.00267334  5078"}}, "geometry": {"type": "Point", "coordinates": [-10.611197434978441, -0.06116685503589499]}}, {"type": "Feature", "properties": {"norad_id": 54048, "name": "EUTELSAT HOTBIRD 13F", "group": "eutelsat", "lat": 0.04489880595977451, "lon": -0.3718428438494806, "alt_km": 35776.55449078051, "timestamp": "2025-12-24T16:52:41.172780+00:00", "meta": {"OBJECT_NAME": "EUTELSAT HOTBIRD 13F", "OBJECT_ID": "2022-134A", "EPOCH": "2025-12-24T02:30:38.546784", "MEAN_MOTION": 1.00269795, "ECCENTRICITY": 0.00023884, "INCLINATION": 0.0563, "RA_OF_ASC_NODE": 288.8517, "ARG_OF_PERICENTER": 71.396, "MEAN_ANOMALY": 143.2903, "EPHEMERIS_TYPE": 0, "CLASSIFICATION_TYPE": "U", "NORAD_CAT_ID": 54048, "ELEMENT_SET_NO": 999, "REV_AT_EPOCH": 1162, "BSTAR": 0, "MEAN_MOTION_DOT": 1.08e-06, "MEAN_MOTION_DDOT": 0}, "tle": {"line1": "1 54048U 22134A   25358.10461281  .00000108  00000+0  00000+0 0  9996", "line2": "2 54048   0.0563 288.8517 0002388  71.3960 143.2903  1.00269795 11624"}}, "geometry": {"type": "Point", "coordinates": [-0.3718428438494806, 0.04489880595977451]}}, {"type": "Feature", "properties": {"norad_id": 54225, "name": "EUTELSAT HOTBIRD 13G", "group": "eutelsat", "lat": 0.03439467081506556, "lon": -0.375092865971512, "alt_km": 35794.00957482105, "timestamp": "2025-12-24T16:52:41.172792+00:00", "meta": {"OBJECT_NAME": "EUTELSAT HOTBIRD 13G", "OBJECT_ID": "2022-146A", "EPOCH": "2025-12-24T00:28:38.654112", "MEAN_MOTION": 1.00268836, "ECCENTRICITY": 0.00017131, "INCLINATION": 0.0535, "RA_OF_ASC_NODE": 227.8066, "ARG_OF_PERICENTER": 307.349, "MEAN_ANOMALY": 297.8001, "EPHEMERIS_TYPE": 0, "CLASSIFICATION_TYPE": "U", "NORAD_CAT_ID": 54225, "ELEMENT_SET_NO": 999, "REV_AT_EPOCH": 571, "BSTAR": 0, "MEAN_MOTION_DOT": 1.08e-06, "MEAN_MOTION_DDOT": 0}, "tle": {"line1": "1 54225U 22146A   25358.01989183  .00000108  00000+0  00000+0 0  9992", "line2": "2 54225   0.0535 227.8066 0001713 307.3490 297.8001  1.00268836  5716"}}, "geometry": {"type": "Point", "coordinates": [-0.375092865971512, 0.03439467081506556]}}, {"type": "Feature", "properties": {"norad_id": 54259, "name": "EUTELSAT 10B", "group": "eutelsat", "lat": -0.06082517990945899, "lon": -3.3389031081124094, "alt_km": 35789.43542789629, "timestamp": "2025-12-24T16:52:41.172805+00:00", "meta": {"OBJECT_NAME": "EUTELSAT 10B", "OBJECT_ID": "2022-157A", "EPOCH": "2025-12-24T06:17:59.220672", "MEAN_MOTION": 1.00269381, "ECCENTRICITY": 7.276e-05, "INCLINATION": 0.0584, "RA_OF_ASC_NODE": 95.8929, "ARG_OF_PERICENTER": 53.1792, "MEAN_ANOMALY": 48.4937, "EPHEMERIS_TYPE": 0, "CLASSIFICATION_TYPE": "U", "NORAD_CAT_ID": 54259, "ELEMENT_SET_NO": 999, "REV_AT_EPOCH": 1127, "BSTAR": 0, "MEAN_MOTION_DOT": 8.9e-07, "MEAN_MOTION_DDOT": 0}, "tle": {"line1": "1 54259U 22157A   25358.26249098  .00000089  00000+0  00000+0 0  9990", "line2": "2 54259   0.0584  95.8929 0000727  53.1792  48.4937  1.00269381 11275"}}, "geometry": {"type": "Point", "coordinates": [-3.3389031081124094, -0.06082517990945899]}}, {"type": "Feature", "properties": {"norad_id": 59346, "name": "EUTELSAT 36D", "group": "eutelsat", "lat": -0.002451020801238475, "lon": 22.51664042411371, "alt_km": 35784.275657720165, "timestamp": "2025-12-24T16:52:41.172817+00:00", "meta": {"OBJECT_NAME": "EUTELSAT 36D", "OBJECT_ID": "2024-059A", "EPOCH": "2025-12-24T06:25:21.015840", "MEAN_MOTION": 1.00272985, "ECCENTRICITY": 3.606e-05, "INCLINATION": 0.018, "RA_OF_ASC_NODE": 34.3242, "ARG_OF_PERICENTER": 327.5215, "MEAN_ANOMALY": 223.4105, "EPHEMERIS_TYPE": 0, "CLASSIFICATION_TYPE": "U", "NORAD_CAT_ID": 59346, "ELEMENT_SET_NO": 999, "REV_AT_EPOCH": 639, "BSTAR": 0, "MEAN_MOTION_DOT": 1.77e-06, "MEAN_MOTION_DDOT": 0}, "tle": {"line1": "1 59346U 24059A   25358.26760435  .00000177  00000+0  00000+0 0  9996", "line2": "2 59346   0.0180  34.3242 0000360 327.5215 223.4105  1.00272985  6399"}}, "geometry": {"type": "Point", "coordinates": [22.51664042411371, -0.002451020801238475]}}]}